{
    "links": {
        "self": "http://www.neowsapp.com/rest/v1/neo/54016764?api_key=iIulBulltgU6a56xZRHN4H3l9WmuAYTsLGpBGhQ2"
    },
    "id": "54016764",
    "neo_reference_id": "54016764",
    "name": "(2020 HR6)",
    "designation": "2020 HR6",
    "nasa_jpl_url": "http://ssd.jpl.nasa.gov/sbdb.cgi?sstr=54016764",
    "absolute_magnitude_h": 26.27,
    "estimated_diameter": {
        "kilometers": {
            "estimated_diameter_min": 0.0148099972,
            "estimated_diameter_max": 0.0331161605
        },
        "meters": {
            "estimated_diameter_min": 14.8099972066,
            "estimated_diameter_max": 33.1161605006
        },
        "miles": {
            "estimated_diameter_min": 0.0092025028,
            "estimated_diameter_max": 0.0205774218
        },
        "feet": {
            "estimated_diameter_min": 48.5892312353,
            "estimated_diameter_max": 108.6488240167
        }
    },
    "is_potentially_hazardous_asteroid": false,
    "close_approach_data": [
        {
            "close_approach_date": "2020-05-01",
            "close_approach_date_full": "2020-May-01 23:34",
            "epoch_date_close_approach": 1588376040000,
            "relative_velocity": {
                "kilometers_per_second": "12.1627999741",
                "kilometers_per_hour": "43786.0799069249",
                "miles_per_hour": "27206.9672621667"
            },
            "miss_distance": {
                "astronomical": "0.0325829307",
                "lunar": "12.6747600423",
                "kilometers": "4874337.031077609",
                "miles": "3028772.5850606442"
            },
            "orbiting_body": "Earth"
        },
        {
            "close_approach_date": "2020-08-23",
            "close_approach_date_full": "2020-Aug-23 11:53",
            "epoch_date_close_approach": 1598183580000,
            "relative_velocity": {
                "kilometers_per_second": "14.2634383547",
                "kilometers_per_hour": "51348.3780770863",
                "miles_per_hour": "31905.8852557318"
            },
            "miss_distance": {
                "astronomical": "0.0678541955",
                "lunar": "26.3952820495",
                "kilometers": "10150843.117363585",
                "miles": "6307441.433184073"
            },
            "orbiting_body": "Mars"
        }
    ],
    "orbital_data": {
        "orbit_id": "1",
        "orbit_determination_date": "2020-04-26 09:12:07",
        "first_observation_date": "2020-04-19",
        "last_observation_date": "2020-04-26",
        "data_arc_in_days": 7,
        "observations_used": 13,
        "orbit_uncertainty": "8",
        "minimum_orbit_intersection": ".0217457",
        "jupiter_tisserand_invariant": "3.416",
        "epoch_osculation": "2458962.5",
        "eccentricity": ".5763258139124298",
        "semi_major_axis": "2.20784726164973",
        "inclination": "5.675400298387298",
        "ascending_node_longitude": "33.2426557293383",
        "orbital_period": "1198.262492501851",
        "perihelion_distance": ".9354078915851203",
        "perihelion_argument": "230.250194216558",
        "aphelion_distance": "3.48028663171434",
        "perihelion_time": "2459002.959959725476",
        "mean_anomaly": "347.8444117275507",
        "mean_motion": ".300435006730751",
        "equinox": "J2000",
        "orbit_class": {
            "orbit_class_type": "APO",
            "orbit_class_description": "Near-Earth asteroid orbits which cross the Earth’s orbit similar to that of 1862 Apollo",
            "orbit_class_range": "a (semi-major axis) > 1.0 AU; q (perihelion) < 1.017 AU"
        }
    },
    "is_sentry_object": false
}